[{"OBJECT_NAME":"KUIPER-00175","OBJECT_ID":"2025-301C","EPOCH":"2026-03-05T08:16:23.856384","MEAN_MOTION":15.30791713,"ECCENTRICITY":0.0002132,"INCLINATION":51.8759,"RA_OF_ASC_NODE":85.8896,"ARG_OF_PERICENTER":34.94,"MEAN_ANOMALY":325.1724,"EPHEMERIS_TYPE":0,"CLASSIFICATION_TYPE":"U","NORAD_CAT_ID":67135,"ELEMENT_SET_NO":999,"REV_AT_EPOCH":1314,"BSTAR":0.00068341,"MEAN_MOTION_DOT":0.00020328,"MEAN_MOTION_DDOT":0},{"OBJECT_NAME":"KUIPER-00179","OBJECT_ID":"2025-301D","EPOCH":"2026-03-05T20:00:00.999360","MEAN_MOTION":15.14096987,"ECCENTRICITY":0.0002231,"INCLINATION":51.8817,"RA_OF_ASC_NODE":84.7048,"ARG_OF_PERICENTER":56.3227,"MEAN_ANOMALY":278.4029,"EPHEMERIS_TYPE":0,"CLASSIFICATION_TYPE":"U","NORAD_CAT_ID":67136,"ELEMENT_SET_NO":999,"REV_AT_EPOCH":574,"BSTAR":-0.10828,"MEAN_MOTION_DOT":-0.01816704,"MEAN_MOTION_DDOT":0},{"OBJECT_NAME":"KUIPER-00181","OBJECT_ID":"2025-301E","EPOCH":"2026-03-05T20:00:00.999360","MEAN_MOTION":14.76403027,"ECCENTRICITY":0.0001898,"INCLINATION":51.9008,"RA_OF_ASC_NODE":94.0572,"ARG_OF_PERICENTER":88.3085,"MEAN_ANOMALY":134.8404,"EPHEMERIS_TYPE":0,"CLASSIFICATION_TYPE":"U","NORAD_CAT_ID":67137,"ELEMENT_SET_NO":999,"REV_AT_EPOCH":540,"BSTAR":-0.00060989,"MEAN_MOTION_DOT":-4.489e-5,"MEAN_MOTION_DDOT":0},{"OBJECT_NAME":"KUIPER-00183","OBJECT_ID":"2025-301F","EPOCH":"2026-03-05T20:00:00.999360","MEAN_MOTION":15.3155815,"ECCENTRICITY":0.001447,"INCLINATION":51.8652,"RA_OF_ASC_NODE":84.5462,"ARG_OF_PERICENTER":37.4721,"MEAN_ANOMALY":311.2831,"EPHEMERIS_TYPE":0,"CLASSIFICATION_TYPE":"U","NORAD_CAT_ID":67138,"ELEMENT_SET_NO":999,"REV_AT_EPOCH":559,"BSTAR":-0.044165,"MEAN_MOTION_DOT":-0.01241842,"MEAN_MOTION_DDOT":0},{"OBJECT_NAME":"KUIPER-00184","OBJECT_ID":"2025-301G","EPOCH":"2026-03-05T05:18:23.731200","MEAN_MOTION":15.37154182,"ECCENTRICITY":0.0012398,"INCLINATION":51.8617,"RA_OF_ASC_NODE":87.2132,"ARG_OF_PERICENTER":34.4952,"MEAN_ANOMALY":325.6837,"EPHEMERIS_TYPE":0,"CLASSIFICATION_TYPE":"U","NORAD_CAT_ID":67139,"ELEMENT_SET_NO":999,"REV_AT_EPOCH":1332,"BSTAR":0.0011905,"MEAN_MOTION_DOT":0.00043949,"MEAN_MOTION_DDOT":0},{"OBJECT_NAME":"KUIPER-00186","OBJECT_ID":"2025-301H","EPOCH":"2026-03-05T12:37:45.784704","MEAN_MOTION":14.79977827,"ECCENTRICITY":6.25e-5,"INCLINATION":51.9022,"RA_OF_ASC_NODE":96.522,"ARG_OF_PERICENTER":107.3495,"MEAN_ANOMALY":252.7535,"EPHEMERIS_TYPE":0,"CLASSIFICATION_TYPE":"U","NORAD_CAT_ID":67140,"ELEMENT_SET_NO":999,"REV_AT_EPOCH":1294,"BSTAR":0.0019056,"MEAN_MOTION_DOT":0.00014352,"MEAN_MOTION_DDOT":0},{"OBJECT_NAME":"KUIPER-00187","OBJECT_ID":"2025-301J","EPOCH":"2026-03-05T06:04:46.108416","MEAN_MOTION":14.79948764,"ECCENTRICITY":6.74e-5,"INCLINATION":51.9018,"RA_OF_ASC_NODE":100.2399,"ARG_OF_PERICENTER":95.6772,"MEAN_ANOMALY":264.4268,"EPHEMERIS_TYPE":0,"CLASSIFICATION_TYPE":"U","NORAD_CAT_ID":67141,"ELEMENT_SET_NO":999,"REV_AT_EPOCH":1286,"BSTAR":-0.00075641,"MEAN_MOTION_DOT":-5.985e-5,"MEAN_MOTION_DDOT":0},{"OBJECT_NAME":"KUIPER-00188","OBJECT_ID":"2025-301K","EPOCH":"2026-03-05T07:45:51.542208","MEAN_MOTION":15.37876142,"ECCENTRICITY":0.0010313,"INCLINATION":51.8688,"RA_OF_ASC_NODE":86.4563,"ARG_OF_PERICENTER":30.0208,"MEAN_ANOMALY":330.1368,"EPHEMERIS_TYPE":0,"CLASSIFICATION_TYPE":"U","NORAD_CAT_ID":67142,"ELEMENT_SET_NO":999,"REV_AT_EPOCH":1306,"BSTAR":0.0013133,"MEAN_MOTION_DOT":0.00049679,"MEAN_MOTION_DDOT":0},{"OBJECT_NAME":"KUIPER-00191","OBJECT_ID":"2025-301L","EPOCH":"2026-03-05T20:00:00.999360","MEAN_MOTION":14.83368524,"ECCENTRICITY":0.0006321,"INCLINATION":51.8996,"RA_OF_ASC_NODE":90.2703,"ARG_OF_PERICENTER":52.6538,"MEAN_ANOMALY":256.1829,"EPHEMERIS_TYPE":0,"CLASSIFICATION_TYPE":"U","NORAD_CAT_ID":67143,"ELEMENT_SET_NO":999,"REV_AT_EPOCH":497,"BSTAR":-0.0020176,"MEAN_MOTION_DOT":-0.00016896,"MEAN_MOTION_DDOT":0},{"OBJECT_NAME":"KUIPER-00196","OBJECT_ID":"2025-301M","EPOCH":"2026-03-05T08:15:55.816128","MEAN_MOTION":15.38615916,"ECCENTRICITY":0.0003784,"INCLINATION":51.87,"RA_OF_ASC_NODE":85.8732,"ARG_OF_PERICENTER":9.9788,"MEAN_ANOMALY":350.1274,"EPHEMERIS_TYPE":0,"CLASSIFICATION_TYPE":"U","NORAD_CAT_ID":67144,"ELEMENT_SET_NO":999,"REV_AT_EPOCH":1307,"BSTAR":0.0012661,"MEAN_MOTION_DOT":0.0004898,"MEAN_MOTION_DDOT":0},{"OBJECT_NAME":"KUIPER-00204","OBJECT_ID":"2025-301N","EPOCH":"2026-03-05T12:48:37.072224","MEAN_MOTION":15.25954009,"ECCENTRICITY":0.0003051,"INCLINATION":51.8847,"RA_OF_ASC_NODE":90.0007,"ARG_OF_PERICENTER":332.451,"MEAN_ANOMALY":27.631,"EPHEMERIS_TYPE":0,"CLASSIFICATION_TYPE":"U","NORAD_CAT_ID":67145,"ELEMENT_SET_NO":999,"REV_AT_EPOCH":1314,"BSTAR":0.0011787,"MEAN_MOTION_DOT":0.00030475,"MEAN_MOTION_DDOT":0},{"OBJECT_NAME":"KUIPER-00210","OBJECT_ID":"2025-301P","EPOCH":"2026-03-05T20:00:00.999360","MEAN_MOTION":14.84035303,"ECCENTRICITY":0.0010332,"INCLINATION":51.8992,"RA_OF_ASC_NODE":90.2718,"ARG_OF_PERICENTER":58.9632,"MEAN_ANOMALY":50.8613,"EPHEMERIS_TYPE":0,"CLASSIFICATION_TYPE":"U","NORAD_CAT_ID":67146,"ELEMENT_SET_NO":999,"REV_AT_EPOCH":565,"BSTAR":0.00031257,"MEAN_MOTION_DOT":2.401e-5,"MEAN_MOTION_DDOT":0},{"OBJECT_NAME":"KUIPER-00221","OBJECT_ID":"2025-301Q","EPOCH":"2026-03-05T02:01:39.805536","MEAN_MOTION":14.7998519,"ECCENTRICITY":6.121e-5,"INCLINATION":51.9008,"RA_OF_ASC_NODE":100.9697,"ARG_OF_PERICENTER":107.2753,"MEAN_ANOMALY":252.8276,"EPHEMERIS_TYPE":0,"CLASSIFICATION_TYPE":"U","NORAD_CAT_ID":67147,"ELEMENT_SET_NO":999,"REV_AT_EPOCH":1284,"BSTAR":0.00067593303,"MEAN_MOTION_DOT":4.942e-5,"MEAN_MOTION_DDOT":0},{"OBJECT_NAME":"KUIPER-00232","OBJECT_ID":"2025-301R","EPOCH":"2026-03-05T20:00:00.999360","MEAN_MOTION":15.15190104,"ECCENTRICITY":0.0003031,"INCLINATION":51.8811,"RA_OF_ASC_NODE":84.5372,"ARG_OF_PERICENTER":139.5046,"MEAN_ANOMALY":215.2136,"EPHEMERIS_TYPE":0,"CLASSIFICATION_TYPE":"U","NORAD_CAT_ID":67148,"ELEMENT_SET_NO":999,"REV_AT_EPOCH":536,"BSTAR":-0.096444,"MEAN_MOTION_DOT":-0.01657748,"MEAN_MOTION_DDOT":0},{"OBJECT_NAME":"KUIPER-00241","OBJECT_ID":"2025-301S","EPOCH":"2026-03-05T20:00:00.999360","MEAN_MOTION":14.79993902,"ECCENTRICITY":8.91e-5,"INCLINATION":51.9013,"RA_OF_ASC_NODE":92.6631,"ARG_OF_PERICENTER":69.3639,"MEAN_ANOMALY":294.6004,"EPHEMERIS_TYPE":0,"CLASSIFICATION_TYPE":"U","NORAD_CAT_ID":67149,"ELEMENT_SET_NO":999,"REV_AT_EPOCH":577,"BSTAR":-0.0028343,"MEAN_MOTION_DOT":-0.0002179,"MEAN_MOTION_DDOT":0},{"OBJECT_NAME":"KUIPER-00245","OBJECT_ID":"2025-301T","EPOCH":"2026-03-05T01:57:46.878048","MEAN_MOTION":14.79932036,"ECCENTRICITY":5.258e-5,"INCLINATION":51.9025,"RA_OF_ASC_NODE":103.5032,"ARG_OF_PERICENTER":66.5774,"MEAN_ANOMALY":293.5243,"EPHEMERIS_TYPE":0,"CLASSIFICATION_TYPE":"U","NORAD_CAT_ID":67150,"ELEMENT_SET_NO":999,"REV_AT_EPOCH":1280,"BSTAR":-0.00020996179,"MEAN_MOTION_DOT":-1.821e-5,"MEAN_MOTION_DDOT":0},{"OBJECT_NAME":"KUIPER-00246","OBJECT_ID":"2025-301U","EPOCH":"2026-03-05T20:00:00.999360","MEAN_MOTION":15.06571241,"ECCENTRICITY":0.0005082,"INCLINATION":51.903,"RA_OF_ASC_NODE":85.9904,"ARG_OF_PERICENTER":54.8056,"MEAN_ANOMALY":10.3494,"EPHEMERIS_TYPE":0,"CLASSIFICATION_TYPE":"U","NORAD_CAT_ID":67151,"ELEMENT_SET_NO":999,"REV_AT_EPOCH":594,"BSTAR":-0.082697,"MEAN_MOTION_DOT":-0.01140682,"MEAN_MOTION_DDOT":0}]
