KUIPER-00175            
1 67135U 25301C   26064.34472056  .00020328  00000+0  68341-3 0  9991
2 67135  51.8759  85.8896 0002132  34.9400 325.1724 15.30791713 13141
KUIPER-00179            
1 67136U 25301D   26064.83334490 -.01816704  00000+0 -10828+0 0  9992
2 67136  51.8817  84.7048 0002231  56.3227 278.4029 15.14096987  5747
KUIPER-00181            
1 67137U 25301E   26064.83334490 -.00004489  00000+0 -60989-3 0  9998
2 67137  51.9008  94.0572 0001898  88.3085 134.8404 14.76403027  5401
KUIPER-00183            
1 67138U 25301F   26064.83334490 -.01241842  00000+0 -44165-1 0  9992
2 67138  51.8652  84.5462 0014470  37.4721 311.2831 15.31558150  5595
KUIPER-00184            
1 67139U 25301G   26064.22110800  .00043949  00000+0  11905-2 0  9995
2 67139  51.8617  87.2132 0012398  34.4952 325.6837 15.37154182 13329
KUIPER-00186            
1 67140U 25301H   26064.52622436  .00014352  00000+0  19056-2 0  9994
2 67140  51.9022  96.5220 0000625 107.3495 252.7535 14.79977827 12941
KUIPER-00187            
1 67141U 25301J   26064.25331144 -.00005985  00000+0 -75641-3 0  9995
2 67141  51.9018 100.2399 0000674  95.6772 264.4268 14.79948764 12860
KUIPER-00188            
1 67142U 25301K   26064.32351322  .00049679  00000+0  13133-2 0  9997
2 67142  51.8688  86.4563 0010313  30.0208 330.1368 15.37876142 13069
KUIPER-00191            
1 67143U 25301L   26064.83334490 -.00016896  00000+0 -20176-2 0  9993
2 67143  51.8996  90.2703 0006321  52.6538 256.1829 14.83368524  4970
KUIPER-00196            
1 67144U 25301M   26064.34439602  .00048980  00000+0  12661-2 0  9998
2 67144  51.8700  85.8732 0003784   9.9788 350.1274 15.38615916 13079
KUIPER-00204            
1 67145U 25301N   26064.53376241  .00030475  00000+0  11787-2 0  9997
2 67145  51.8847  90.0007 0003051 332.4510  27.6310 15.25954009 13149
KUIPER-00210            
1 67146U 25301P   26064.83334490  .00002401  00000+0  31257-3 0  9994
2 67146  51.8992  90.2718 0010332  58.9632  50.8613 14.84035303  5659
KUIPER-00221            
1 67147U 25301Q   26064.08448849  .00004942  00000+0  67593-3 0  9990
2 67147  51.9008 100.9697 0000612 107.2753 252.8276 14.79985190 12846
KUIPER-00232            
1 67148U 25301R   26064.83334490 -.01657748  00000+0 -96444-1 0  9996
2 67148  51.8811  84.5372 0003031 139.5046 215.2136 15.15190104  5367
KUIPER-00241            
1 67149U 25301S   26064.83334490 -.00021790  00000+0 -28343-2 0  9992
2 67149  51.9013  92.6631 0000891  69.3639 294.6004 14.79993902  5776
KUIPER-00245            
1 67150U 25301T   26064.08179257 -.00001821  00000+0 -20996-3 0  9999
2 67150  51.9025 103.5032 0000525  66.5774 293.5243 14.79932036 12807
KUIPER-00246            
1 67151U 25301U   26064.83334490 -.01140682  00000+0 -82697-1 0  9999
2 67151  51.9030  85.9904 0005082  54.8056  10.3494 15.06571241  5949
